NORAD_CAT_ID,OBJECT_NAME,OBJECT_TYPE,EPOCH,MEAN_MOTION,ECCENTRICITY,INCLINATION,RA_OF_ASC_NODE,ARG_OF_PERICENTER,MEAN_ANOMALY,BSTAR,MEAN_MOTION_DOT,MEAN_MOTION_DDOT,TLE_LINE0,TLE_LINE1,TLE_LINE2,SEMIMAJOR_AXIS,PERIOD,APOGEE,PERIGEE,DECAYED
53553.0,STARLINK-4501,PAYLOAD,2023-07-03 02:34:24,15.08838302,0.0001103,53.2162,146.0012,79.9246,280.187,8.7266e-05,1.101e-05,0.0,0 STARLINK-4501,1 53553U 22101AC  23184.10722825  .00001101  00000-0  87266-4 0  9998,2 53553  53.2162 146.0012 0001103  79.9246 280.1870 15.08838302 48273,6917.886,95.438,540.514,538.988,0.0
53553.0,STARLINK-4501,PAYLOAD,2023-07-04 07:11:21,15.08838962,0.0001228,53.217,140.6484,86.1872,273.9261,-3.238e-05,-8.03e-06,0.0,0 STARLINK-4501,1 53553U 22101AC  23185.29955194 -.00000803  00000-0 -32380-4 0  9993,2 53553  53.2170 140.6484 0001228  86.1872 273.9261 15.08838962 48454,6917.884,95.438,540.598,538.899,0.0
53553.0,STARLINK-4501,PAYLOAD,2023-07-05 13:23:40,15.08838384,0.0001255,53.2168,135.0004,90.027,270.0866,-6.2825e-06,-3.88e-06,0.0,0 STARLINK-4501,1 53553U 22101AC  23186.55811249 -.00000388  00000-0 -62825-5 0  9991,2 53553  53.2168 135.0004 0001255  90.0270 270.0866 15.08838384 48641,6917.885,95.438,540.619,538.882,0.0
53553.0,STARLINK-4501,PAYLOAD,2023-07-06 21:11:23,15.08843324,0.0001194,53.217,129.0534,97.1535,262.9593,5.1216e-05,5.27e-06,0.0,0 STARLINK-4501,1 53553U 22101AC  23187.88291209  .00000527  00000-0  51216-4 0  9990,2 53553  53.2170 129.0534 0001194  97.1535 262.9593 15.08843324 48848,6917.87,95.437,540.561,538.909,0.0
53553.0,STARLINK-4501,PAYLOAD,2023-07-07 06:43:41,15.0885037,0.0001168,53.2166,127.2685,93.1005,267.012,0.0001026,1.346e-05,0.0,0 STARLINK-4501,1 53553U 22101AC  23188.28034501  .00001346  00000-0  10260-3 0  9998,2 53553  53.2166 127.2685 0001168  93.1005 267.0120 15.08850370 48907,6917.849,95.437,540.522,538.906,0.0
53553.0,STARLINK-4501,PAYLOAD,2023-07-07 13:05:14,15.08846292,0.0001192,53.2153,126.077,83.5504,276.5623,3.856e-05,3.26e-06,0.0,0 STARLINK-4501,1 53553U 22101AC  23188.54530931  .00000326  00000-0  38560-4 0  9996,2 53553  53.2153 126.0770 0001192  83.5504 276.5623 15.08846292 48944,6917.861,95.437,540.551,538.902,0.0
53553.0,STARLINK-4501,PAYLOAD,2023-07-08 01:48:20,15.08831844,0.0001101,53.2165,123.6999,92.4169,267.6949,4.1345e-05,3.7e-06,0.0,0 STARLINK-4501,1 53553U 22101AC  23189.07523947  .00000370  00000-0  41345-4 0  9998,2 53553  53.2165 123.6999 0001101  92.4169 267.6949 15.08831844 49028,6917.905,95.438,540.532,539.009,0.0
53553.0,STARLINK-4501,PAYLOAD,2023-07-08 04:59:06,15.08840321,0.0001164,53.2163,123.1049,88.6908,271.4218,6.109e-05,6.85e-06,0.0,0 STARLINK-4501,1 53553U 22101AC  23189.20771417  .00000685  00000-0  61090-4 0  9998,2 53553  53.2163 123.1049 0001164  88.6908 271.4218 15.08840321 49048,6917.879,95.438,540.55,538.939,0.0
53553.0,STARLINK-4501,PAYLOAD,2023-07-08 12:56:02,15.08829769,0.0001148,53.2154,121.6196,85.0778,275.0345,8.1927e-05,1.016e-05,0.0,0 STARLINK-4501,1 53553U 22101AC  23189.53892129  .00001016  00000-0  81927-4 0  9998,2 53553  53.2154 121.6196 0001148  85.0778 275.0345 15.08829769 49091,6917.912,95.438,540.571,538.982,0.0
53553.0,STARLINK-4501,PAYLOAD,2023-07-09 04:49:53,15.08841006,0.0001197,53.2161,118.6438,92.2151,267.8979,-3.6469e-05,-8.68e-06,0.0,0 STARLINK-4501,1 53553U 22101AC  23190.20131838 -.00000868  00000-0 -36469-4 0  9994,2 53553  53.2161 118.6438 0001197  92.2151 267.8979 15.08841006 49194,6917.877,95.437,540.57,538.914,0.0
53553.0,STARLINK-4501,PAYLOAD,2023-07-10 04:40:40,15.08843909,0.0001301,53.2167,114.1827,94.5488,265.5653,7.4901e-05,9.04e-06,0.0,0 STARLINK-4501,1 53553U 22101AC  23191.19491312  .00000904  00000-0  74901-4 0  9991,2 53553  53.2167 114.1827 0001301  94.5488 265.5653 15.08843909 49343,6917.868,95.437,540.633,538.833,0.0
53553.0,STARLINK-4501,PAYLOAD,2023-07-11 01:20:41,15.08836966,0.0001425,53.2176,110.316,100.5154,259.5999,4.0197e-05,3.52e-06,0.0,0 STARLINK-4501,1 53553U 22101AC  23192.05604021  .00000352  00000-0  40197-4 0  9997,2 53553  53.2176 110.3160 0001425 100.5154 259.5999 15.08836966 49471,6917.89,95.438,540.74,538.769,0.0
53553.0,STARLINK-4501,PAYLOAD,2023-07-12 04:22:14,15.08851399,0.0001324,53.2166,105.2632,91.2956,268.8188,7.9633e-07,-2.75e-06,0.0,0 STARLINK-4501,1 53553U 22101AC  23193.18211341 -.00000275  00000-0  79633-6 0  9995,2 53553  53.2166 105.2632 0001324  91.2956 268.8188 15.08851399 49640,6917.846,95.437,540.626,538.795,0.0
53553.0,STARLINK-4501,PAYLOAD,2023-07-12 10:43:47,15.08837818,0.0001484,53.2177,104.0717,92.6356,267.4806,7.2936e-07,-2.76e-06,0.0,0 STARLINK-4501,1 53553U 22101AC  23193.44708225 -.00000276  00000-0  72936-6 0  9996,2 53553  53.2177 104.0717 0001484  92.6356 267.4806 15.08837818 49685,6917.887,95.438,540.779,538.725,0.0
53553.0,STARLINK-4501,PAYLOAD,2023-07-13 21:42:17,15.08834502,0.0001109,53.2163,97.5336,98.8924,261.2193,-2.4352e-05,-6.75e-06,0.0,0 STARLINK-4501,1 53553U 22101AC  23194.90436885 -.00000675  00000-0 -24352-4 0  9999,2 53553  53.2163  97.5336 0001109  98.8924 261.2193 15.08834502 49909,6917.897,95.438,540.529,538.995,0.0
53553.0,STARLINK-4501,PAYLOAD,2023-07-15 02:19:12,15.0884878,0.000129,53.218,92.1784,97.4705,262.6433,0.00012249,1.663e-05,0.0,0 STARLINK-4501,1 53553U 22101AC  23196.09667765  .00001663  00000-0  12249-3 0  9991,2 53553  53.2180  92.1784 0001290  97.4705 262.6433 15.08848780 50085,6917.854,95.437,540.611,538.826,0.0
53553.0,STARLINK-4501,PAYLOAD,2023-07-15 16:37:42,15.08835802,0.0001231,53.2175,89.5018,90.2884,269.8249,3.768e-05,3.12e-06,0.0,0 STARLINK-4501,1 53553U 22101AC  23196.69285019  .00000312  00000-0  37680-4 0  9992,2 53553  53.2175  89.5018 0001231  90.2884 269.8249 15.08835802 50178,6917.893,95.438,540.61,538.907,0.0
53553.0,STARLINK-4501,PAYLOAD,2023-07-16 22:50:01,15.08848698,0.0001243,53.2171,83.8533,82.8647,277.2486,2.4125e-05,9.6e-07,0.0,0 STARLINK-4501,1 53553U 22101AC  23197.95140430  .00000096  00000-0  24125-4 0  9998,2 53553  53.2171  83.8533 0001243  82.8647 277.2486 15.08848698 50364,6917.854,95.437,540.579,538.859,0.0
53553.0,STARLINK-4501,PAYLOAD,2023-07-18 01:51:33,15.08851921,0.0001278,53.218,78.7958,98.1613,261.9524,0.0001491,2.087e-05,0.0,0 STARLINK-4501,1 53553U 22101AC  23199.07747641  .00002087  00000-0  14910-3 0  9992,2 53553  53.2180  78.7958 0001278  98.1613 261.9524 15.08851921 50534,6917.844,95.437,540.593,538.825,0.0
53553.0,STARLINK-4501,PAYLOAD,2023-07-19 01:42:21,15.08836802,0.000111,53.2166,74.3364,98.9264,261.1854,-7.6807e-05,-1.51e-05,0.0,0 STARLINK-4501,1 53553U 22101AC  23200.07108789 -.00001510  00000-0 -76807-4 0  9995,2 53553  53.2166  74.3364 0001110  98.9264 261.1854 15.08836802 50681,6917.89,95.438,540.523,538.987,0.0
53553.0,STARLINK-4501,PAYLOAD,2023-07-20 15:51:37,15.08831991,7.61e-05,53.2168,67.201,64.2537,295.8534,4.8842e-05,4.9e-06,0.0,0 STARLINK-4501,1 53553U 22101AC  23201.66085263  .00000490  00000-0  48842-4 0  9994,2 53553  53.2168  67.2010 0000761  64.2537 295.8534 15.08831991 50922,6917.905,95.438,540.296,539.243,0.0
53553.0,STARLINK-4501,PAYLOAD,2023-07-20 23:48:33,15.08839786,0.0001,53.2165,65.7136,94.8978,265.2129,0.00012598,1.718e-05,0.0,0 STARLINK-4501,1 53553U 22101AC  23201.99204899  .00001718  00000-0  12598-3 0  9990,2 53553  53.2165  65.7136 0001000  94.8978 265.2129 15.08839786 50972,6917.881,95.438,540.438,539.054,0.0
53553.0,STARLINK-4501,PAYLOAD,2023-07-24 13:39:23,15.08829598,9.67e-05,53.2173,49.6567,76.1835,283.9265,0.00027982,4.167e-05,0.0,0 STARLINK-4501,1 53553U 22101AC  23205.56902243  .00004167  00000-0  27982-3 0  9999,2 53553  53.2173  49.6567 0000967  76.1835 283.9265 15.08829598 52178,6917.912,95.438,540.446,539.108,0.0
53553.0,STARLINK-4501,PAYLOAD,2023-07-25 13:30:09,15.08842479,9.75e-05,53.2166,45.195,83.3007,276.8096,0.00012341,1.677e-05,0.0,0 STARLINK-4501,1 53553U 22101AC  23206.56261536  .00001677  00000-0  12341-3 0  9999,2 53553  53.2166  45.1950 0000975  83.3007 276.8096 15.08842479 52320,6917.873,95.437,540.412,539.063,0.0
53553.0,STARLINK-4501,PAYLOAD,2023-07-25 23:02:29,15.08876379,0.0001071,53.2167,43.4101,112.2422,247.8684,-0.00034241,-5.739e-05,0.0,0 STARLINK-4501,1 53553U 22101AC  23206.96005852 -.00005739  00000-0 -34241-3 0  9998,2 53553  53.2167  43.4101 0001071 112.2422 247.8684 15.08876379 52384,6917.769,95.435,540.375,538.893,0.0
53553.0,STARLINK-4501,PAYLOAD,2023-07-26 19:42:28,15.08858393,8.65e-05,53.2165,39.5458,75.405,284.7038,-0.00023777,-4.072e-05,0.0,0 STARLINK-4501,1 53553U 22101AC  23207.82116510 -.00004072  00000-0 -23777-3 0  9999,2 53553  53.2165  39.5458 0000865  75.4050 284.7038 15.08858393 51850,6917.824,95.436,540.288,539.091,0.0
53553.0,STARLINK-4501,PAYLOAD,2023-07-27 11:36:21,15.08834021,0.0001482,53.2169,36.5714,89.4799,270.6363,-9.1615e-07,-3.03e-06,0.0,0 STARLINK-4501,1 53553U 22101AC  23208.48358011 -.00000303  00000-0 -91615-6 0  9998,2 53553  53.2169  36.5714 0001482  89.4799 270.6363 15.08834021 52619,6917.899,95.438,540.789,538.738,0.0
53553.0,STARLINK-4501,PAYLOAD,2023-07-27 19:33:16,15.08835427,0.000148,53.2167,35.085,88.6441,271.4721,-8.136e-06,-4.17e-06,0.0,0 STARLINK-4501,1 53553U 22101AC  23208.81477989 -.00000417  00000-0 -81360-5 0  9992,2 53553  53.2167  35.0850 0001480  88.6441 271.4721 15.08835427 52006,6917.894,95.438,540.783,538.736,0.0
53553.0,STARLINK-4501,PAYLOAD,2023-07-28 13:02:31,15.08836423,0.0001073,53.2161,31.8142,98.9414,261.1699,-1.956e-05,-5.99e-06,0.0,0 STARLINK-4501,1 53553U 22101AC  23209.54342142 -.00000599  00000-0 -19560-4 0  9998,2 53553  53.2161  31.8142 0001073  98.9414 261.1699 15.08836423 52771,6917.891,95.438,540.499,539.014,0.0
53553.0,STARLINK-4501,PAYLOAD,2023-07-28 20:59:27,15.08841173,0.0001033,53.2166,30.3275,94.1571,265.9539,4.5594e-05,4.38e-06,0.0,0 STARLINK-4501,1 53553U 22101AC  23209.87461977  .00000438  00000-0  45594-4 0  9998,2 53553  53.2166  30.3275 0001033  94.1571 265.9539 15.08841173 52161,6917.877,95.437,540.456,539.027,0.0
